OBJECT_NAME,OBJECT_ID,EPOCH,MEAN_MOTION,ECCENTRICITY,INCLINATION,RA_OF_ASC_NODE,ARG_OF_PERICENTER,MEAN_ANOMALY,EPHEMERIS_TYPE,CLASSIFICATION_TYPE,NORAD_CAT_ID,ELEMENT_SET_NO,REV_AT_EPOCH,BSTAR,MEAN_MOTION_DOT,MEAN_MOTION_DDOT
KUZGTU 1 (RS47S),2023-091AV,2026-07-18T22:41:35.531232,15.30518628,.00096787,97.5042,264.7615,352.5658,7.5437,0,U,57217,999,16923,.2170945E-3,.6335E-4,0
SONATE-2,2024-043Q,2026-07-18T21:23:53.069280,15.61030814,.00066827,97.5567,352.2964,95.0432,265.1588,0,U,59112,999,13283,.33115055E-3,.27782E-3,0
MESAT1,2024-125G,2026-07-18T12:01:32.039328,15.66729735,.00108494,97.2234,57.7719,102.6251,257.6223,0,U,60209,999,11446,.39338041E-3,.41462E-3,0
OOV-CUBE (TUBSAT-30),2024-128F,2026-07-18T20:38:15.638208,15.02882322,.00406528,61.9941,115.1222,140.8126,219.5921,0,U,60240,999,11087,.83560792E-4,.929E-5,0
COLIBRI-S (RS67S),2024-199M,2026-07-18T22:08:37.670208,15.48949186,.00093838,97.2938,74.0872,149.7115,210.4680,0,U,61746,999,14232,.24205451E-3,.13007E-3,0
HORS 3 (RS81S),2024-199U,2026-07-18T22:06:37.192320,15.57085851,.00075309,97.2922,76.4369,144.8225,215.3529,0,U,61753,999,14249,.30836497E-3,.22275E-3,0
HORS 4 (RS82S),2024-199V,2026-07-18T21:44:18.323232,15.62647076,.00073447,97.2864,77.8467,138.1408,222.0413,0,U,61754,999,14259,.39531288E-3,.35369E-3,0
SIT-2086,2024-199AF,2026-07-18T22:30:49.947840,15.55197426,.00085102,97.2880,76.8200,133.5870,226.6092,0,U,61764,999,13936,.35716968E-3,.24091E-3,0
HYPERVIEW 1G (RS66S),2024-199AP,2026-07-18T18:35:19.366944,15.86574386,.0008278,97.2779,81.3217,140.9208,219.2663,0,U,61772,999,13966,.70279522E-3,.180366E-2,0
ALTAIR (RS65S),2024-199AW,2026-07-18T22:35:53.836512,15.37554400,.00124534,97.2984,69.0883,182.8369,177.2808,0,U,61779,999,14199,.16595422E-3,.6047E-4,0
ASRTU-1 (AO-123),2024-199AY,2026-07-18T21:26:39.392736,15.36084979,.00134142,97.2956,68.2807,186.9431,173.1629,0,U,61781,999,13879,.1187547E-3,.4104E-4,0
SAMSAT-IONOSPHERE (RS75S),2024-199BB,2026-07-18T21:28:42.348576,15.60365196,.00096091,97.2886,76.5852,148.7232,211.4599,0,U,61784,999,14250,.39675045E-3,.3253E-3,0
RTU MIREA 1 (RS51S),2024-199BC,2026-07-18T21:43:49.596960,15.64596085,.00096471,97.2872,77.6089,144.0556,216.1355,0,U,61785,999,13942,.44571866E-3,.43141E-3,0
TEVEL2-4,2025-052D,2026-07-18T15:57:43.674912,15.35641020,.00032682,97.3855,96.1261,45.1827,314.9681,0,U,63213,999,7494,.30055382E-3,.10338E-3,0
TEVEL2-5,2025-052E,2026-07-18T22:47:56.772096,15.35457438,.00032296,97.3855,96.3502,45.9598,314.1911,0,U,63214,999,7498,.28271458E-3,.9662E-4,0
TEVEL2-6,2025-052F,2026-07-18T23:06:45.252864,15.35422134,.00033357,97.3857,96.3480,48.3774,311.7755,0,U,63215,999,7498,.29413433E-3,.10045E-3,0
TEVEL2-1,2025-052H,2026-07-18T05:18:28.836576,15.34835684,.0004044,97.3830,95.1910,53.7107,306.4510,0,U,63217,999,7485,.28401311E-3,.9517E-4,0
TEVEL2-3,2025-052J,2026-07-18T06:42:54.396000,15.34900151,.00037787,97.3839,95.2758,55.7421,304.4179,0,U,63218,999,7486,.296017E-3,.9943E-4,0
TEVEL2-2,2025-052K,2026-07-18T06:52:30.830016,15.34848337,.00040779,97.3833,95.2592,53.6322,306.5297,0,U,63219,999,7486,.28756579E-3,.9641E-4,0
OTP-2,2025-052AB,2026-07-18T22:28:24.369024,15.24364191,.00079903,97.3824,91.8947,60.7549,299.4487,0,U,63235,999,7470,.14187145E-3,.3405E-4,0
TEVEL2-9,2025-052AD,2026-07-18T22:59:05.443296,15.32802414,.00073412,97.3893,95.2358,46.1700,314.0148,0,U,63237,999,7489,.28668863E-3,.9012E-4,0
TEVEL2-7,2025-052AE,2026-07-18T16:17:00.829248,15.32478825,.00074957,97.3894,94.8589,47.1803,313.0068,0,U,63238,999,7484,.26975076E-3,.8389E-4,0
TEVEL2-8,2025-052AF,2026-07-18T16:29:20.012352,15.32464515,.00075187,97.3898,94.8441,48.0936,312.0946,0,U,63239,999,7484,.26842033E-3,.8343E-4,0
INNOSAT 16 (RS92S7),2025-155C,2026-07-18T22:39:21.885120,15.25762325,.00123986,97.4588,166.9816,77.2505,283.0118,0,U,64878,999,8551,.12809638E-3,.3202E-4,0
GEOSCAN 6 (RS92S6),2025-155D,2026-07-18T22:58:52.675104,15.30698299,.00098343,97.4579,168.6492,71.5199,288.7109,0,U,64879,999,8562,.20129679E-3,.5902E-4,0
GEOSCAN 1 (RS92S1),2025-155E,2026-07-18T22:43:41.806560,15.31349299,.0009754,97.4576,168.8155,71.8452,288.3850,0,U,64880,999,8563,.20856079E-3,.6244E-4,0
239ALFEROV (RS61S),2025-155F,2026-07-18T22:25:38.043840,15.33734576,.00094815,97.4574,169.4755,71.8369,288.3905,0,U,64881,999,8567,.27103761E-3,.8774E-4,0
GEOSCAN 2 (RS92S2),2025-155Q,2026-07-18T22:26:45.972384,15.31607119,.00088618,97.4575,168.9684,62.2002,298.0136,0,U,64890,999,8564,.2098803E-3,.6333E-4,0
GEOSCAN 5 (RS92S5),2025-155R,2026-07-18T22:00:32.639616,15.34037952,.00085156,97.4567,169.6073,76.7652,283.4540,0,U,64891,999,8568,.25775397E-3,.8418E-4,0
GEOSCAN 4 (RS92S4),2025-155S,2026-07-18T21:32:58.427808,15.34207430,.00084148,97.4572,169.6460,76.9817,283.2365,0,U,64892,999,8568,.25345357E-3,.832E-4,0
