KUZGTU 1 (RS47S)        
1 57217U 23091AV  26199.94555013  .00006335  00000+0  21709-3 0  9994
2 57217  97.5042 264.7615 0009678 352.5658   7.5437 15.30518628169232
SONATE-2                
1 59112U 24043Q   26199.89158645  .00027782  00000+0  33115-3 0  9995
2 59112  97.5567 352.2964 0006682  95.0432 265.1588 15.61030814132836
MESAT1                  
1 60209U 24125G   26199.50106527  .00041462  00000+0  39338-3 0  9999
2 60209  97.2234  57.7719 0010849 102.6251 257.6223 15.66729735114465
OOV-CUBE (TUBSAT-30)    
1 60240U 24128F   26199.85990322  .00000929  00000+0  83561-4 0  9990
2 60240  61.9941 115.1222 0040652 140.8126 219.5921 15.02882322110876
COLIBRI-S (RS67S)       
1 61746U 24199M   26199.92265822  .00013007  00000+0  24205-3 0  9998
2 61746  97.2938  74.0872 0009383 149.7115 210.4680 15.48949186142321
HORS 3 (RS81S)          
1 61753U 24199U   26199.92126380  .00022275  00000+0  30836-3 0  9995
2 61753  97.2922  76.4369 0007530 144.8225 215.3529 15.57085851142493
HORS 4 (RS82S)          
1 61754U 24199V   26199.90576763  .00035369  00000+0  39531-3 0  9997
2 61754  97.2864  77.8467 0007344 138.1408 222.0413 15.62647076142592
SIT-2086                
1 61764U 24199AF  26199.93807810  .00024091  00000+0  35717-3 0  9993
2 61764  97.2880  76.8200 0008510 133.5870 226.6092 15.55197426139368
HYPERVIEW 1G (RS66S)    
1 61772U 24199AP  26199.77452971  .00180366  00000+0  70280-3 0  9990
2 61772  97.2779  81.3217 0008278 140.9208 219.2663 15.86574386139664
ALTAIR (RS65S)          
1 61779U 24199AW  26199.94159533  .00006047  00000+0  16595-3 0  9996
2 61779  97.2984  69.0883 0012453 182.8369 177.2808 15.37554400141998
ASRTU-1 (AO-123)        
1 61781U 24199AY  26199.89351149  .00004104  00000+0  11875-3 0  9998
2 61781  97.2956  68.2807 0013414 186.9431 173.1629 15.36084979138798
SAMSAT-IONOSPHERE (RS7*)
1 61784U 24199BB  26199.89493459  .00032530  00000+0  39675-3 0  9994
2 61784  97.2886  76.5852 0009609 148.7232 211.4599 15.60365196142507
RTU MIREA 1 (RS51S)     
1 61785U 24199BC  26199.90543515  .00043141  00000+0  44572-3 0  9998
2 61785  97.2872  77.6089 0009647 144.0556 216.1355 15.64596085139423
TEVEL2-4                
1 63213U 25052D   26199.66508883  .00010338  00000+0  30055-3 0  9990
2 63213  97.3855  96.1261 0003268  45.1827 314.9681 15.35641020 74948
TEVEL2-5                
1 63214U 25052E   26199.94996264  .00009662  00000+0  28271-3 0  9991
2 63214  97.3855  96.3502 0003229  45.9598 314.1911 15.35457438 74989
TEVEL2-6                
1 63215U 25052F   26199.96302376  .00010045  00000+0  29413-3 0  9995
2 63215  97.3857  96.3480 0003335  48.3774 311.7755 15.35422134 74982
TEVEL2-1                
1 63217U 25052H   26199.22116709  .00009517  00000+0  28401-3 0  9997
2 63217  97.3830  95.1910 0004044  53.7107 306.4510 15.34835684 74851
TEVEL2-3                
1 63218U 25052J   26199.27979625  .00009943  00000+0  29602-3 0  9994
2 63218  97.3839  95.2758 0003778  55.7421 304.4179 15.34900151 74868
TEVEL2-2                
1 63219U 25052K   26199.28646794  .00009641  00000+0  28757-3 0  9999
2 63219  97.3833  95.2592 0004077  53.6322 306.5297 15.34848337 74860
OTP-2                   
1 63235U 25052AB  26199.93639316  .00003405  00000+0  14187-3 0  9995
2 63235  97.3824  91.8947 0007990  60.7549 299.4487 15.24364191 74705
TEVEL2-9                
1 63237U 25052AD  26199.95770189  .00009012  00000+0  28669-3 0  9993
2 63237  97.3893  95.2358 0007341  46.1700 314.0148 15.32802414 74896
TEVEL2-7                
1 63238U 25052AE  26199.67848182  .00008389  00000+0  26975-3 0  9996
2 63238  97.3894  94.8589 0007495  47.1803 313.0068 15.32478825 74844
TEVEL2-8                
1 63239U 25052AF  26199.68703718  .00008343  00000+0  26842-3 0  9996
2 63239  97.3898  94.8441 0007518  48.0936 312.0946 15.32464515 74844
INNOSAT 16 (RS92S7)     
1 64878U 25155C   26199.94400330  .00003202  00000+0  12810-3 0  9992
2 64878  97.4588 166.9816 0012398  77.2505 283.0118 15.25762325 85512
GEOSCAN 6 (RS92S6)      
1 64879U 25155D   26199.95755411  .00005902  00000+0  20130-3 0  9990
2 64879  97.4579 168.6492 0009834  71.5199 288.7109 15.30698299 85627
GEOSCAN 1 (RS92S1)      
1 64880U 25155E   26199.94701165  .00006244  00000+0  20856-3 0  9993
2 64880  97.4576 168.8155 0009754  71.8452 288.3850 15.31349299 85634
239ALFEROV (RS61S)      
1 64881U 25155F   26199.93446810  .00008774  00000+0  27104-3 0  9999
2 64881  97.4574 169.4755 0009481  71.8369 288.3905 15.33734576 85673
GEOSCAN 2 (RS92S2)      
1 64890U 25155Q   26199.93525431  .00006333  00000+0  20988-3 0  9998
2 64890  97.4575 168.9684 0008861  62.2002 298.0136 15.31607119 85649
GEOSCAN 5 (RS92S5)      
1 64891U 25155R   26199.91704444  .00008418  00000+0  25775-3 0  9995
2 64891  97.4567 169.6073 0008515  76.7652 283.4540 15.34037952 85684
GEOSCAN 4 (RS92S4)      
1 64892U 25155S   26199.89789847  .00008320  00000+0  25345-3 0  9998
2 64892  97.4572 169.6460 0008414  76.9817 283.2365 15.34207430 85687
